{
  "type": "FeatureCollection",
  "features": [
    {
      "type": "Feature",
      "properties": {
        "norad_id": 35668,
        "name": "COSMOS 2251 DEB",
        "group": "cosmos-2251-debris",
        "lat": 48.435137270023624,
        "lon": 25.07493939331284,
        "alt_km": 730.5796690242478,
        "timestamp": "2025-12-10T23:33:13.214318+00:00",
        "meta_object_name": "COSMOS 2251 DEB",
        "meta_object_id": "1993-036APK",
        "meta_epoch": "2025-12-10T09:50:46.743936",
        "meta_mean_motion": 14.63977041,
        "meta_eccentricity": 0.00831886,
        "meta_inclination": 74.0449,
        "meta_ra_of_asc_node": 224.9926,
        "meta_arg_of_pericenter": 330.6481,
        "meta_mean_anomaly": 29.0026,
        "meta_ephemeris_type": 0,
        "meta_classification_type": "U",
        "meta_norad_cat_id": 35668,
        "meta_element_set_no": 999,
        "meta_rev_at_epoch": 87613,
        "meta_bstar": 0.00039699898,
        "meta_mean_motion_dot": 2.154e-05,
        "meta_mean_motion_ddot": 0,
        "tle_line1": "1 35668U 93036APK 25344.41026324  .00002154  00000+0  39700-3 0  9992",
        "tle_line2": "2 35668  74.0449 224.9926 0083188 330.6481  29.0026 14.63977041876131"
      },
      "geometry": {
        "type": "Point",
        "coordinates": [
          25.07493939331284,
          48.435137270023624
        ]
      }
    },
    {
      "type": "Feature",
      "properties": {
        "norad_id": 35669,
        "name": "COSMOS 2251 DEB",
        "group": "cosmos-2251-debris",
        "lat": 60.443251861549896,
        "lon": -167.06241060445555,
        "alt_km": 1286.8676144592591,
        "timestamp": "2025-12-10T23:33:13.214328+00:00",
        "meta_object_name": "COSMOS 2251 DEB",
        "meta_object_id": "1993-036APL",
        "meta_epoch": "2025-12-03T21:23:42.149184",
        "meta_mean_motion": 13.57134195,
        "meta_eccentricity": 0.0387239,
        "meta_inclination": 73.852,
        "meta_ra_of_asc_node": 173.7821,
        "meta_arg_of_pericenter": 287.3475,
        "meta_mean_anomaly": 68.5633,
        "meta_ephemeris_type": 0,
        "meta_classification_type": "U",
        "meta_norad_cat_id": 35669,
        "meta_element_set_no": 999,
        "meta_rev_at_epoch": 60669,
        "meta_bstar": 0.0017031,
        "meta_mean_motion_dot": 1.95e-05,
        "meta_mean_motion_ddot": 0,
        "tle_line1": "1 35669U 93036APL 25337.89146006  .00001950  00000+0  17031-2 0  9992",
        "tle_line2": "2 35669  73.8520 173.7821 0387239 287.3475  68.5633 13.57134195606690"
      },
      "geometry": {
        "type": "Point",
        "coordinates": [
          -167.06241060445555,
          60.443251861549896
        ]
      }
    },
    {
      "type": "Feature",
      "properties": {
        "norad_id": 35670,
        "name": "COSMOS 2251 DEB",
        "group": "cosmos-2251-debris",
        "lat": -44.411843448224374,
        "lon": -95.49674829502992,
        "alt_km": 617.2146163133066,
        "timestamp": "2025-12-10T23:33:13.214337+00:00",
        "meta_object_name": "COSMOS 2251 DEB",
        "meta_object_id": "1993-036APM",
        "meta_epoch": "2025-12-08T12:40:44.894496",
        "meta_mean_motion": 14.93746131,
        "meta_eccentricity": 0.00374415,
        "meta_inclination": 73.8955,
        "meta_ra_of_asc_node": 73.039,
        "meta_arg_of_pericenter": 35.0218,
        "meta_mean_anomaly": 325.3416,
        "meta_ephemeris_type": 0,
        "meta_classification_type": "U",
        "meta_norad_cat_id": 35670,
        "meta_element_set_no": 999,
        "meta_rev_at_epoch": 87664,
        "meta_bstar": 0.0018203888,
        "meta_mean_motion_dot": 0.00019569,
        "meta_mean_motion_ddot": 0,
        "tle_line1": "1 35670U 93036APM 25342.52829739  .00019569  00000+0  18204-2 0  9999",
        "tle_line2": "2 35670  73.8955  73.0390 0037441  35.0218 325.3416 14.93746131876644"
      },
      "geometry": {
        "type": "Point",
        "coordinates": [
          -95.49674829502992,
          -44.411843448224374
        ]
      }
    },
    {
      "type": "Feature",
      "properties": {
        "norad_id": 35671,
        "name": "COSMOS 2251 DEB",
        "group": "cosmos-2251-debris",
        "lat": -50.62956371352253,
        "lon": -76.94450092920049,
        "alt_km": 710.527005655681,
        "timestamp": "2025-12-10T23:33:13.214346+00:00",
        "meta_object_name": "COSMOS 2251 DEB",
        "meta_object_id": "1993-036APN",
        "meta_epoch": "2025-12-09T13:24:21.306816",
        "meta_mean_motion": 14.48340433,
        "meta_eccentricity": 0.004149,
        "meta_inclination": 74.0178,
        "meta_ra_of_asc_node": 85.2791,
        "meta_arg_of_pericenter": 259.861,
        "meta_mean_anomaly": 118.1508,
        "meta_ephemeris_type": 0,
        "meta_classification_type": "U",
        "meta_norad_cat_id": 35671,
        "meta_element_set_no": 999,
        "meta_rev_at_epoch": 86717,
        "meta_bstar": 0.00041701,
        "meta_mean_motion_dot": 1.548e-05,
        "meta_mean_motion_ddot": 0,
        "tle_line1": "1 35671U 93036APN 25343.55857994  .00001548  00000+0  41701-3 0  9995",
        "tle_line2": "2 35671  74.0178  85.2791 0041490 259.8610 118.1508 14.48340433867179"
      },
      "geometry": {
        "type": "Point",
        "coordinates": [
          -76.94450092920049,
          -50.62956371352253
        ]
      }
    },
    {
      "type": "Feature",
      "properties": {
        "norad_id": 35674,
        "name": "COSMOS 2251 DEB",
        "group": "cosmos-2251-debris",
        "lat": 67.20784848612722,
        "lon": 2.6839200343727065,
        "alt_km": 679.7038760779706,
        "timestamp": "2025-12-10T23:33:13.214355+00:00",
        "meta_object_name": "COSMOS 2251 DEB",
        "meta_object_id": "1993-036APR",
        "meta_epoch": "2025-12-10T14:57:59.522112",
        "meta_mean_motion": 14.54148756,
        "meta_eccentricity": 0.00960447,
        "meta_inclination": 74.0605,
        "meta_ra_of_asc_node": 320.5053,
        "meta_arg_of_pericenter": 5.7735,
        "meta_mean_anomaly": 354.451,
        "meta_ephemeris_type": 0,
        "meta_classification_type": "U",
        "meta_norad_cat_id": 35674,
        "meta_element_set_no": 999,
        "meta_rev_at_epoch": 86080,
        "meta_bstar": 0.003234414,
        "meta_mean_motion_dot": 0.00014545,
        "meta_mean_motion_ddot": 0,
        "tle_line1": "1 35674U 93036APR 25344.62360558  .00014545  00000+0  32344-2 0  9995",
        "tle_line2": "2 35674  74.0605 320.5053 0096044   5.7735 354.4510 14.54148756860806"
      },
      "geometry": {
        "type": "Point",
        "coordinates": [
          2.6839200343727065,
          67.20784848612722
        ]
      }
    },
    {
      "type": "Feature",
      "properties": {
        "norad_id": 35701,
        "name": "COSMOS 2251 DEB",
        "group": "cosmos-2251-debris",
        "lat": 58.59144825963161,
        "lon": 97.31711993517479,
        "alt_km": 784.4202298272394,
        "timestamp": "2025-12-10T23:33:13.214364+00:00",
        "meta_object_name": "COSMOS 2251 DEB",
        "meta_object_id": "1993-036APW",
        "meta_epoch": "2025-12-06T05:57:57.623904",
        "meta_mean_motion": 13.80843435,
        "meta_eccentricity": 0.02897209,
        "meta_inclination": 74.0028,
        "meta_ra_of_asc_node": 313.2955,
        "meta_arg_of_pericenter": 164.0681,
        "meta_mean_anomaly": 196.98,
        "meta_ephemeris_type": 0,
        "meta_classification_type": "U",
        "meta_norad_cat_id": 35701,
        "meta_element_set_no": 999,
        "meta_rev_at_epoch": 62069,
        "meta_bstar": 0.0021223911,
        "meta_mean_motion_dot": 3.05e-05,
        "meta_mean_motion_ddot": 0,
        "tle_line1": "1 35701U 93036APW 25340.24858361  .00003050  00000+0  21224-2 0  9998",
        "tle_line2": "2 35701  74.0028 313.2955 0289720 164.0681 196.9800 13.80843435620696"
      },
      "geometry": {
        "type": "Point",
        "coordinates": [
          97.31711993517479,
          58.59144825963161
        ]
      }
    },
    {
      "type": "Feature",
      "properties": {
        "norad_id": 35703,
        "name": "COSMOS 2251 DEB",
        "group": "cosmos-2251-debris",
        "lat": 13.896747799746217,
        "lon": -137.77341814891386,
        "alt_km": 567.5166209637227,
        "timestamp": "2025-12-10T23:33:13.214373+00:00",
        "meta_object_name": "COSMOS 2251 DEB",
        "meta_object_id": "1993-036APY",
        "meta_epoch": "2025-12-08T11:12:28.770624",
        "meta_mean_motion": 14.90258753,
        "meta_eccentricity": 0.00649106,
        "meta_inclination": 74.042,
        "meta_ra_of_asc_node": 51.3159,
        "meta_arg_of_pericenter": 122.6243,
        "meta_mean_anomaly": 238.1226,
        "meta_ephemeris_type": 0,
        "meta_classification_type": "U",
        "meta_norad_cat_id": 35703,
        "meta_element_set_no": 999,
        "meta_rev_at_epoch": 66552,
        "meta_bstar": 0.00096315421,
        "meta_mean_motion_dot": 9.705e-05,
        "meta_mean_motion_ddot": 0,
        "tle_line1": "1 35703U 93036APY 25342.46699966  .00009705  00000+0  96315-3 0  9997",
        "tle_line2": "2 35703  74.0420  51.3159 0064910 122.6243 238.1226 14.90258753665523"
      },
      "geometry": {
        "type": "Point",
        "coordinates": [
          -137.77341814891386,
          13.896747799746217
        ]
      }
    }
  ]
}